[{"OBJECT_NAME":"FENGYUN 1C DEB","OBJECT_ID":"1999-025CGS","EPOCH":"2026-02-21T05:58:10.507008","MEAN_MOTION":14.12634844,"ECCENTRICITY":0.0137661,"INCLINATION":98.2801,"RA_OF_ASC_NODE":220.6437,"ARG_OF_PERICENTER":300.9067,"MEAN_ANOMALY":57.8632,"EPHEMERIS_TYPE":0,"CLASSIFICATION_TYPE":"U","NORAD_CAT_ID":31804,"ELEMENT_SET_NO":999,"REV_AT_EPOCH":64657,"BSTAR":0.001507,"MEAN_MOTION_DOT":3.014e-5,"MEAN_MOTION_DDOT":0},{"OBJECT_NAME":"FENGYUN 1C DEB","OBJECT_ID":"1999-025CGT","EPOCH":"2026-03-05T04:25:54.279264","MEAN_MOTION":14.0465685,"ECCENTRICITY":0.0439164,"INCLINATION":98.3742,"RA_OF_ASC_NODE":47.1093,"ARG_OF_PERICENTER":284.9374,"MEAN_ANOMALY":70.3578,"EPHEMERIS_TYPE":0,"CLASSIFICATION_TYPE":"U","NORAD_CAT_ID":31805,"ELEMENT_SET_NO":999,"REV_AT_EPOCH":63520,"BSTAR":0.0023074638,"MEAN_MOTION_DOT":8.792e-5,"MEAN_MOTION_DDOT":0},{"OBJECT_NAME":"FENGYUN 1C DEB","OBJECT_ID":"1999-025CGV","EPOCH":"2026-03-06T15:06:54.229248","MEAN_MOTION":14.52649339,"ECCENTRICITY":0.01032827,"INCLINATION":99.0846,"RA_OF_ASC_NODE":208.41,"ARG_OF_PERICENTER":270.4805,"MEAN_ANOMALY":88.4554,"EPHEMERIS_TYPE":0,"CLASSIFICATION_TYPE":"U","NORAD_CAT_ID":31807,"ELEMENT_SET_NO":999,"REV_AT_EPOCH":66523,"BSTAR":0.0010584444,"MEAN_MOTION_DOT":4.593e-5,"MEAN_MOTION_DDOT":0},{"OBJECT_NAME":"FENGYUN 1C DEB","OBJECT_ID":"1999-025CGW","EPOCH":"2026-03-07T09:04:13.873440","MEAN_MOTION":14.61728278,"ECCENTRICITY":0.00378417,"INCLINATION":99.2046,"RA_OF_ASC_NODE":267.5337,"ARG_OF_PERICENTER":244.1542,"MEAN_ANOMALY":115.5752,"EPHEMERIS_TYPE":0,"CLASSIFICATION_TYPE":"U","NORAD_CAT_ID":31808,"ELEMENT_SET_NO":999,"REV_AT_EPOCH":58837,"BSTAR":0.0077146851,"MEAN_MOTION_DOT":0.00039003,"MEAN_MOTION_DDOT":0},{"OBJECT_NAME":"FENGYUN 1C DEB","OBJECT_ID":"1999-025CGY","EPOCH":"2026-03-03T00:01:00.610464","MEAN_MOTION":14.46420733,"ECCENTRICITY":0.02104906,"INCLINATION":98.2634,"RA_OF_ASC_NODE":80.4463,"ARG_OF_PERICENTER":255.935,"MEAN_ANOMALY":101.8366,"EPHEMERIS_TYPE":0,"CLASSIFICATION_TYPE":"U","NORAD_CAT_ID":31810,"ELEMENT_SET_NO":999,"REV_AT_EPOCH":65574,"BSTAR":0.00060051947,"MEAN_MOTION_DOT":2.789e-5,"MEAN_MOTION_DDOT":0},{"OBJECT_NAME":"FENGYUN 1C DEB","OBJECT_ID":"1999-025CHB","EPOCH":"2026-03-06T01:01:05.805984","MEAN_MOTION":14.50252922,"ECCENTRICITY":0.01362753,"INCLINATION":99.4166,"RA_OF_ASC_NODE":159.3749,"ARG_OF_PERICENTER":87.2369,"MEAN_ANOMALY":274.441,"EPHEMERIS_TYPE":0,"CLASSIFICATION_TYPE":"U","NORAD_CAT_ID":31813,"ELEMENT_SET_NO":999,"REV_AT_EPOCH":98463,"BSTAR":0.0005636854,"MEAN_MOTION_DOT":2.413e-5,"MEAN_MOTION_DDOT":0},{"OBJECT_NAME":"FENGYUN 1C DEB","OBJECT_ID":"1999-025CHC","EPOCH":"2026-03-07T08:36:08.491968","MEAN_MOTION":13.66576773,"ECCENTRICITY":0.02284899,"INCLINATION":99.5589,"RA_OF_ASC_NODE":120.2951,"ARG_OF_PERICENTER":358.6893,"MEAN_ANOMALY":1.3626,"EPHEMERIS_TYPE":0,"CLASSIFICATION_TYPE":"U","NORAD_CAT_ID":31814,"ELEMENT_SET_NO":999,"REV_AT_EPOCH":62955,"BSTAR":0.00063922457,"MEAN_MOTION_DOT":5.9e-6,"MEAN_MOTION_DDOT":0},{"OBJECT_NAME":"FENGYUN 1C DEB","OBJECT_ID":"1999-025CHD","EPOCH":"2026-03-01T18:54:09.268992","MEAN_MOTION":14.10300706,"ECCENTRICITY":0.00592014,"INCLINATION":98.7777,"RA_OF_ASC_NODE":50.1779,"ARG_OF_PERICENTER":156.5831,"MEAN_ANOMALY":203.8056,"EPHEMERIS_TYPE":0,"CLASSIFICATION_TYPE":"U","NORAD_CAT_ID":31815,"ELEMENT_SET_NO":999,"REV_AT_EPOCH":96653,"BSTAR":9.415771e-6,"MEAN_MOTION_DOT":-2.6e-7,"MEAN_MOTION_DDOT":0},{"OBJECT_NAME":"FENGYUN 1C DEB","OBJECT_ID":"1999-025CHE","EPOCH":"2026-03-07T07:01:21.012384","MEAN_MOTION":13.9441848,"ECCENTRICITY":0.0119179,"INCLINATION":98.9843,"RA_OF_ASC_NODE":183.3018,"ARG_OF_PERICENTER":281.9968,"MEAN_ANOMALY":106.4764,"EPHEMERIS_TYPE":0,"CLASSIFICATION_TYPE":"U","NORAD_CAT_ID":31816,"ELEMENT_SET_NO":999,"REV_AT_EPOCH":94872,"BSTAR":0.0012026,"MEAN_MOTION_DOT":1.655e-5,"MEAN_MOTION_DDOT":0},{"OBJECT_NAME":"FENGYUN 1C DEB","OBJECT_ID":"1999-025CHF","EPOCH":"2026-03-01T20:39:50.316192","MEAN_MOTION":14.67081349,"ECCENTRICITY":0.0059815,"INCLINATION":98.9219,"RA_OF_ASC_NODE":69.0542,"ARG_OF_PERICENTER":190.2632,"MEAN_ANOMALY":169.7353,"EPHEMERIS_TYPE":0,"CLASSIFICATION_TYPE":"U","NORAD_CAT_ID":31817,"ELEMENT_SET_NO":999,"REV_AT_EPOCH":72565,"BSTAR":0.0011325,"MEAN_MOTION_DOT":6.475e-5,"MEAN_MOTION_DDOT":0},{"OBJECT_NAME":"FENGYUN 1C DEB","OBJECT_ID":"1999-025CHH","EPOCH":"2026-02-28T22:28:03.804096","MEAN_MOTION":14.3034779,"ECCENTRICITY":0.0088478,"INCLINATION":98.4816,"RA_OF_ASC_NODE":54.245,"ARG_OF_PERICENTER":89.1467,"MEAN_ANOMALY":271.9852,"EPHEMERIS_TYPE":0,"CLASSIFICATION_TYPE":"U","NORAD_CAT_ID":31819,"ELEMENT_SET_NO":999,"REV_AT_EPOCH":97811,"BSTAR":0.00036713,"MEAN_MOTION_DOT":9.53e-6,"MEAN_MOTION_DDOT":0},{"OBJECT_NAME":"FENGYUN 1C DEB","OBJECT_ID":"1999-025CHJ","EPOCH":"2026-03-07T11:26:06.884448","MEAN_MOTION":14.95641125,"ECCENTRICITY":0.01422251,"INCLINATION":98.9658,"RA_OF_ASC_NODE":254.2868,"ARG_OF_PERICENTER":99.1185,"MEAN_ANOMALY":262.6155,"EPHEMERIS_TYPE":0,"CLASSIFICATION_TYPE":"U","NORAD_CAT_ID":31820,"ELEMENT_SET_NO":999,"REV_AT_EPOCH":99521,"BSTAR":0.001812236,"MEAN_MOTION_DOT":0.00024691,"MEAN_MOTION_DDOT":0},{"OBJECT_NAME":"FENGYUN 1C DEB","OBJECT_ID":"1999-025CHK","EPOCH":"2026-03-05T15:17:34.471392","MEAN_MOTION":14.45063777,"ECCENTRICITY":0.0210151,"INCLINATION":98.1562,"RA_OF_ASC_NODE":311.2092,"ARG_OF_PERICENTER":120.7982,"MEAN_ANOMALY":241.4081,"EPHEMERIS_TYPE":0,"CLASSIFICATION_TYPE":"U","NORAD_CAT_ID":31821,"ELEMENT_SET_NO":999,"REV_AT_EPOCH":94857,"BSTAR":0.0046516,"MEAN_MOTION_DOT":0.00021347,"MEAN_MOTION_DDOT":0},{"OBJECT_NAME":"FENGYUN 1C DEB","OBJECT_ID":"1999-025CHM","EPOCH":"2026-03-05T17:18:51.177888","MEAN_MOTION":14.68168132,"ECCENTRICITY":0.00323795,"INCLINATION":99.5043,"RA_OF_ASC_NODE":169.0616,"ARG_OF_PERICENTER":323.1514,"MEAN_ANOMALY":36.7461,"EPHEMERIS_TYPE":0,"CLASSIFICATION_TYPE":"U","NORAD_CAT_ID":31823,"ELEMENT_SET_NO":999,"REV_AT_EPOCH":97934,"BSTAR":0.0026039188,"MEAN_MOTION_DOT":0.00015066,"MEAN_MOTION_DDOT":0},{"OBJECT_NAME":"FENGYUN 1C DEB","OBJECT_ID":"1999-025CHP","EPOCH":"2026-03-07T05:06:03.527712","MEAN_MOTION":14.21894928,"ECCENTRICITY":0.016664,"INCLINATION":98.5951,"RA_OF_ASC_NODE":68.6497,"ARG_OF_PERICENTER":92.9299,"MEAN_ANOMALY":269.0962,"EPHEMERIS_TYPE":0,"CLASSIFICATION_TYPE":"U","NORAD_CAT_ID":31825,"ELEMENT_SET_NO":999,"REV_AT_EPOCH":96822,"BSTAR":0.00067523,"MEAN_MOTION_DOT":1.673e-5,"MEAN_MOTION_DDOT":0},{"OBJECT_NAME":"FENGYUN 1C DEB","OBJECT_ID":"1999-025CHQ","EPOCH":"2026-03-06T23:08:37.223808","MEAN_MOTION":14.1947325,"ECCENTRICITY":0.01230132,"INCLINATION":98.6346,"RA_OF_ASC_NODE":59.9357,"ARG_OF_PERICENTER":307.1622,"MEAN_ANOMALY":77.5961,"EPHEMERIS_TYPE":0,"CLASSIFICATION_TYPE":"U","NORAD_CAT_ID":31826,"ELEMENT_SET_NO":999,"REV_AT_EPOCH":97009,"BSTAR":0.00055387783,"MEAN_MOTION_DOT":1.214e-5,"MEAN_MOTION_DDOT":0},{"OBJECT_NAME":"FENGYUN 1C DEB","OBJECT_ID":"1999-025CHT","EPOCH":"2026-03-01T23:08:33.379008","MEAN_MOTION":13.8876719,"ECCENTRICITY":0.016784,"INCLINATION":98.8433,"RA_OF_ASC_NODE":231.7449,"ARG_OF_PERICENTER":308.7294,"MEAN_ANOMALY":205.152,"EPHEMERIS_TYPE":0,"CLASSIFICATION_TYPE":"U","NORAD_CAT_ID":31829,"ELEMENT_SET_NO":999,"REV_AT_EPOCH":95247,"BSTAR":0.00033461,"MEAN_MOTION_DOT":4.09e-6,"MEAN_MOTION_DDOT":0},{"OBJECT_NAME":"FENGYUN 1C DEB","OBJECT_ID":"1999-025CHU","EPOCH":"2026-03-05T06:31:23.798208","MEAN_MOTION":13.83880056,"ECCENTRICITY":0.0184677,"INCLINATION":99.1604,"RA_OF_ASC_NODE":172.8973,"ARG_OF_PERICENTER":95.0595,"MEAN_ANOMALY":331.4136,"EPHEMERIS_TYPE":0,"CLASSIFICATION_TYPE":"U","NORAD_CAT_ID":31830,"ELEMENT_SET_NO":999,"REV_AT_EPOCH":93881,"BSTAR":0.0018292,"MEAN_MOTION_DOT":2.274e-5,"MEAN_MOTION_DDOT":0},{"OBJECT_NAME":"FENGYUN 1C DEB","OBJECT_ID":"1999-025CHY","EPOCH":"2026-03-02T08:52:20.933472","MEAN_MOTION":14.03275995,"ECCENTRICITY":0.01606543,"INCLINATION":98.3641,"RA_OF_ASC_NODE":280.2375,"ARG_OF_PERICENTER":211.9246,"MEAN_ANOMALY":147.211,"EPHEMERIS_TYPE":0,"CLASSIFICATION_TYPE":"U","NORAD_CAT_ID":31834,"ELEMENT_SET_NO":999,"REV_AT_EPOCH":64827,"BSTAR":0.00035478497,"MEAN_MOTION_DOT":5.81e-6,"MEAN_MOTION_DDOT":0},{"OBJECT_NAME":"FENGYUN 1C DEB","OBJECT_ID":"1999-025CJA","EPOCH":"2026-03-07T08:29:25.512864","MEAN_MOTION":14.10776451,"ECCENTRICITY":0.01101967,"INCLINATION":98.6202,"RA_OF_ASC_NODE":32.9935,"ARG_OF_PERICENTER":237.2676,"MEAN_ANOMALY":121.7836,"EPHEMERIS_TYPE":0,"CLASSIFICATION_TYPE":"U","NORAD_CAT_ID":31836,"ELEMENT_SET_NO":999,"REV_AT_EPOCH":62596,"BSTAR":0.0022134629,"MEAN_MOTION_DOT":4.151e-5,"MEAN_MOTION_DDOT":0},{"OBJECT_NAME":"FENGYUN 1C DEB","OBJECT_ID":"1999-025CJB","EPOCH":"2026-03-04T10:30:16.287264","MEAN_MOTION":14.84272597,"ECCENTRICITY":0.00915644,"INCLINATION":98.0869,"RA_OF_ASC_NODE":145.0566,"ARG_OF_PERICENTER":112.3308,"MEAN_ANOMALY":248.7643,"EPHEMERIS_TYPE":0,"CLASSIFICATION_TYPE":"U","NORAD_CAT_ID":31837,"ELEMENT_SET_NO":999,"REV_AT_EPOCH":99570,"BSTAR":0.0020173845,"MEAN_MOTION_DOT":0.00018196,"MEAN_MOTION_DDOT":0},{"OBJECT_NAME":"FENGYUN 1C DEB","OBJECT_ID":"1999-025CJF","EPOCH":"2026-03-02T04:56:32.847936","MEAN_MOTION":14.0461496,"ECCENTRICITY":0.03053492,"INCLINATION":98.4239,"RA_OF_ASC_NODE":229.3066,"ARG_OF_PERICENTER":80.3605,"MEAN_ANOMALY":94.4415,"EPHEMERIS_TYPE":0,"CLASSIFICATION_TYPE":"U","NORAD_CAT_ID":31841,"ELEMENT_SET_NO":999,"REV_AT_EPOCH":60454,"BSTAR":0.0017134601,"MEAN_MOTION_DOT":4.12e-5,"MEAN_MOTION_DDOT":0},{"OBJECT_NAME":"FENGYUN 1C DEB","OBJECT_ID":"1999-025CJH","EPOCH":"2026-03-03T06:32:16.695744","MEAN_MOTION":13.34882446,"ECCENTRICITY":0.06340265,"INCLINATION":99.2903,"RA_OF_ASC_NODE":1.1199,"ARG_OF_PERICENTER":155.1094,"MEAN_ANOMALY":208.2078,"EPHEMERIS_TYPE":0,"CLASSIFICATION_TYPE":"U","NORAD_CAT_ID":31843,"ELEMENT_SET_NO":999,"REV_AT_EPOCH":65770,"BSTAR":0.0022180146,"MEAN_MOTION_DOT":3.52e-5,"MEAN_MOTION_DDOT":0}]
